start=new Date('%Y-%m-27T00:00:00.000Z').valueOf();
sats=[{"SITE":"AFETR","LAUNCH_DATE":"2021-03-11","ECCENTRICITY":"0.00020210","ELEMENT_SET_NO":"999","SEMIMAJOR_AXIS":"6925.372","NORAD_CAT_ID":"47804","ARG_OF_PERICENTER":"89.8065","TLE_LINE2":"2 47804  53.0551 127.3960 0002021  89.8065 270.3155 15.06392314 26547","DECAY_DATE":null,"FILE":"3101032","CENTER_NAME":"EARTH","REV_AT_EPOCH":"2654","MEAN_MOTION_DOT":"-0.00001083","MEAN_ELEMENT_THEORY":"SGP4","RCS_SIZE":"LARGE","OBJECT_TYPE":"PAYLOAD","EPOCH":"2021-08-21T20:26:16.154304","EPHEMERIS_TYPE":"0","REF_FRAME":"TEME","BSTAR":"-0.00005380200000","APOAPSIS":"548.637","PERIOD":"95.593","GP_ID":"183214680","OBJECT_ID":"2021-018T","COUNTRY_CODE":"US","MEAN_MOTION_DDOT":"0.0000000000000","MEAN_ANOMALY":"270.3155","TLE_LINE1":"1 47804U 21018T   21233.85157586 -.00001083  00000-0 -53802-4 0  9997","RA_OF_ASC_NODE":"127.3960","TIME_SYSTEM":"UTC","CLASSIFICATION_TYPE":"U","OBJECT_NAME":"STARLINK-2385","MEAN_MOTION":"15.06392314","INCLINATION":"53.0551","PERIAPSIS":"545.837"},{"EPOCH":"2021-08-21T20:40:49.984032","OBJECT_TYPE":"PAYLOAD","EPHEMERIS_TYPE":"0","REF_FRAME":"TEME","BSTAR":"0.00008421100000","FILE":"3101032","CENTER_NAME":"EARTH","MEAN_MOTION_DOT":"0.00000973","REV_AT_EPOCH":"2655","RCS_SIZE":"LARGE","MEAN_ELEMENT_THEORY":"SGP4","TLE_LINE2":"2 47805  53.0549 127.3496 0002190  82.2160 277.9077 15.06396263 26553","ARG_OF_PERICENTER":"82.2160","DECAY_DATE":null,"LAUNCH_DATE":"2021-03-11","ECCENTRICITY":"0.00021900","SITE":"AFETR","SEMIMAJOR_AXIS":"6925.360","NORAD_CAT_ID":"47805","ELEMENT_SET_NO":"999","OBJECT_NAME":"STARLINK-2386","MEAN_MOTION":"15.06396263","PERIAPSIS":"545.708","INCLINATION":"53.0549","TIME_SYSTEM":"UTC","CLASSIFICATION_TYPE":"U","COUNTRY_CODE":"US","MEAN_ANOMALY":"277.9077","MEAN_MOTION_DDOT":"0.0000000000000","TLE_LINE1":"1 47805U 21018U   21233.86168963  .00000973  00000-0  84211-4 0  9993","RA_OF_ASC_NODE":"127.3496","GP_ID":"183213945","PERIOD":"95.592","APOAPSIS":"548.742","OBJECT_ID":"2021-018U"},{"OBJECT_TYPE":"PAYLOAD","EPOCH":"2021-08-21T21:18:38.549952","EPHEMERIS_TYPE":"0","REF_FRAME":"TEME","BSTAR":"-0.00021509000000","FILE":"3101032","CENTER_NAME":"EARTH","REV_AT_EPOCH":"2640","MEAN_MOTION_DOT":"-0.00003485","MEAN_ELEMENT_THEORY":"SGP4","RCS_SIZE":"LARGE","ARG_OF_PERICENTER":"54.9990","TLE_LINE2":"2 47806  53.0557 142.2427 0002491  54.9990 305.1232 15.06409124 26406","DECAY_DATE":null,"SITE":"AFETR","ECCENTRICITY":"0.00024910","LAUNCH_DATE":"2021-03-11","ELEMENT_SET_NO":"999","NORAD_CAT_ID":"47806","SEMIMAJOR_AXIS":"6925.321","OBJECT_NAME":"STARLINK-2387","MEAN_MOTION":"15.06409124","INCLINATION":"53.0557","PERIAPSIS":"545.460","TIME_SYSTEM":"UTC","CLASSIFICATION_TYPE":"U","COUNTRY_CODE":"US","MEAN_ANOMALY":"305.1232","MEAN_MOTION_DDOT":"0.0000000000000","TLE_LINE1":"1 47806U 21018V   21233.88794618 -.00003485  00000-0 -21509-3 0  9991","RA_OF_ASC_NODE":"142.2427","PERIOD":"95.592","APOAPSIS":"548.911","GP_ID":"183214193","OBJECT_ID":"2021-018V"},{"TIME_SYSTEM":"UTC","CLASSIFICATION_TYPE":"U","INCLINATION":"53.0313","PERIAPSIS":"545.998","OBJECT_NAME":"STARLINK-2388","MEAN_MOTION":"15.06384805","APOAPSIS":"548.523","PERIOD":"95.593","GP_ID":"183214443","OBJECT_ID":"2021-018W","TLE_LINE1":"1 47807U 21018W   21233.94464236 -.00000279  00000-0  16938-6 0  9999","RA_OF_ASC_NODE":"117.1108","COUNTRY_CODE":"US","MEAN_ANOMALY":"263.0845","MEAN_MOTION_DDOT":"0.0000000000000","REV_AT_EPOCH":"2669","MEAN_MOTION_DOT":"-0.00000279","MEAN_ELEMENT_THEORY":"SGP4","RCS_SIZE":"LARGE","FILE":"3101032","CENTER_NAME":"EARTH","REF_FRAME":"TEME","BSTAR":"0.00000016938000","OBJECT_TYPE":"PAYLOAD","EPOCH":"2021-08-21T22:40:17.099904","EPHEMERIS_TYPE":"0","SITE":"AFETR","ECCENTRICITY":"0.00018230","LAUNCH_DATE":"2021-03-11","ELEMENT_SET_NO":"999","NORAD_CAT_ID":"47807","SEMIMAJOR_AXIS":"6925.395","DECAY_DATE":null,"ARG_OF_PERICENTER":"97.0351","TLE_LINE2":"2 47807  53.0313 117.1108 0001823  97.0351 263.0845 15.06384805 26692"},{"EPHEMERIS_TYPE":"0","OBJECT_TYPE":"PAYLOAD","EPOCH":"2021-08-21T20:09:38.890080","BSTAR":"-0.00005379500000","REF_FRAME":"TEME","CENTER_NAME":"EARTH","FILE":"3101032","MEAN_ELEMENT_THEORY":"SGP4","RCS_SIZE":"LARGE","REV_AT_EPOCH":"2639","MEAN_MOTION_DOT":"-0.00001083","ARG_OF_PERICENTER":"65.4420","TLE_LINE2":"2 47808  53.0553 142.4544 0002225  65.4420 294.6801 15.06392600 26398","DECAY_DATE":null,"ELEMENT_SET_NO":"999","SEMIMAJOR_AXIS":"6925.371","NORAD_CAT_ID":"47808","SITE":"AFETR","ECCENTRICITY":"0.00022250","LAUNCH_DATE":"2021-03-11","MEAN_MOTION":"15.06392600","OBJECT_NAME":"STARLINK-2389","INCLINATION":"53.0553","PERIAPSIS":"545.695","CLASSIFICATION_TYPE":"U","TIME_SYSTEM":"UTC","MEAN_MOTION_DDOT":"0.0000000000000","MEAN_ANOMALY":"294.6801","COUNTRY_CODE":"US","RA_OF_ASC_NODE":"142.4544","TLE_LINE1":"1 47808U 21018X   21233.84003345 -.00001083  00000-0 -53795-4 0  9994","OBJECT_ID":"2021-018X","PERIOD":"95.593","APOAPSIS":"548.777","GP_ID":"183215181"},{"CLASSIFICATION_TYPE":"U","TIME_SYSTEM":"UTC","MEAN_MOTION":"15.06396452","OBJECT_NAME":"STARLINK-2390","PERIAPSIS":"545.948","INCLINATION":"53.0548","OBJECT_ID":"2021-018Y","GP_ID":"183213445","PERIOD":"95.592","APOAPSIS":"548.501","MEAN_MOTION_DDOT":"0.0000000000000","MEAN_ANOMALY":"297.7055","COUNTRY_CODE":"US","RA_OF_ASC_NODE":"147.4231","TLE_LINE1":"1 47809U 21018Y   21233.84604044 -.00000313  00000-0 -21307-5 0  9998","CENTER_NAME":"EARTH","FILE":"3101032","RCS_SIZE":"LARGE","MEAN_ELEMENT_THEORY":"SGP4","MEAN_MOTION_DOT":"-0.00000313","REV_AT_EPOCH":"2632","EPHEMERIS_TYPE":"0","EPOCH":"2021-08-21T20:18:17.894016","OBJECT_TYPE":"PAYLOAD","BSTAR":"-0.00000213070000","REF_FRAME":"TEME","NORAD_CAT_ID":"47809","SEMIMAJOR_AXIS":"6925.359","ELEMENT_SET_NO":"999","ECCENTRICITY":"0.00018430","LAUNCH_DATE":"2021-03-11","SITE":"AFETR","TLE_LINE2":"2 47809  53.0548 147.4231 0001843  62.4121 297.7055 15.06396452 26328","ARG_OF_PERICENTER":"62.4121","DECAY_DATE":null},{"TIME_SYSTEM":"UTC","CLASSIFICATION_TYPE":"U","OBJECT_NAME":"STARLINK-2391","MEAN_MOTION":"15.06397569","PERIAPSIS":"546.065","INCLINATION":"53.0563","GP_ID":"183213693","PERIOD":"95.592","APOAPSIS":"548.377","OBJECT_ID":"2021-018Z","COUNTRY_CODE":"US","MEAN_MOTION_DDOT":"0.0000000000000","MEAN_ANOMALY":"312.0036","TLE_LINE1":"1 47810U 21018Z   21233.80457610  .00000942  00000-0  82148-4 0  9996","RA_OF_ASC_NODE":"157.6238","FILE":"3101032","CENTER_NAME":"EARTH","MEAN_MOTION_DOT":"0.00000942","REV_AT_EPOCH":"2617","RCS_SIZE":"LARGE","MEAN_ELEMENT_THEORY":"SGP4","EPOCH":"2021-08-21T19:18:35.375040","OBJECT_TYPE":"PAYLOAD","EPHEMERIS_TYPE":"0","REF_FRAME":"TEME","BSTAR":"0.00008214800000","ECCENTRICITY":"0.00016690","LAUNCH_DATE":"2021-03-11","SITE":"AFETR","SEMIMAJOR_AXIS":"6925.356","NORAD_CAT_ID":"47810","ELEMENT_SET_NO":"999","TLE_LINE2":"2 47810  53.0563 157.6238 0001669  48.1095 312.0036 15.06397569 26177","ARG_OF_PERICENTER":"48.1095","DECAY_DATE":null},{"OBJECT_ID":"2021-018AA","PERIOD":"95.592","APOAPSIS":"548.805","GP_ID":"183214944","MEAN_MOTION_DDOT":"0.0000000000000","MEAN_ANOMALY":"286.5854","COUNTRY_CODE":"US","RA_OF_ASC_NODE":"127.4283","TLE_LINE1":"1 47811U 21018AA  21233.84419933 -.00000967  00000-0 -46014-4 0  9998","CLASSIFICATION_TYPE":"U","TIME_SYSTEM":"UTC","MEAN_MOTION":"15.06395582","OBJECT_NAME":"STARLINK-2392","INCLINATION":"53.0555","PERIAPSIS":"545.649","ELEMENT_SET_NO":"999","NORAD_CAT_ID":"47811","SEMIMAJOR_AXIS":"6925.362","SITE":"AFETR","LAUNCH_DATE":"2021-03-11","ECCENTRICITY":"0.00022790","ARG_OF_PERICENTER":"73.5386","TLE_LINE2":"2 47811  53.0555 127.4283 0002279  73.5386 286.5854 15.06395582 26601","DECAY_DATE":null,"CENTER_NAME":"EARTH","FILE":"3101032","MEAN_ELEMENT_THEORY":"SGP4","RCS_SIZE":"LARGE","REV_AT_EPOCH":"2660","MEAN_MOTION_DOT":"-0.00000967","EPHEMERIS_TYPE":"0","OBJECT_TYPE":"PAYLOAD","EPOCH":"2021-08-21T20:15:38.822112","BSTAR":"-0.00004601400000","REF_FRAME":"TEME"},{"PERIAPSIS":"546.064","INCLINATION":"53.0540","MEAN_MOTION":"15.06392794","OBJECT_NAME":"STARLINK-2393","CLASSIFICATION_TYPE":"U","TIME_SYSTEM":"UTC","RA_OF_ASC_NODE":"157.2655","TLE_LINE1":"1 47812U 21018AB  21233.88198378 -.00001305  00000-0 -68722-4 0  9997","MEAN_MOTION_DDOT":"0.0000000000000","MEAN_ANOMALY":"285.9411","COUNTRY_CODE":"US","OBJECT_ID":"2021-018AB","GP_ID":"183214681","APOAPSIS":"548.407","PERIOD":"95.593","BSTAR":"-0.00006872200000","REF_FRAME":"TEME","EPHEMERIS_TYPE":"0","EPOCH":"2021-08-21T21:10:03.398592","OBJECT_TYPE":"PAYLOAD","RCS_SIZE":"LARGE","MEAN_ELEMENT_THEORY":"SGP4","MEAN_MOTION_DOT":"-0.00001305","REV_AT_EPOCH":"2612","CENTER_NAME":"EARTH","FILE":"3101032","DECAY_DATE":null,"TLE_LINE2":"2 47812  53.0540 157.2655 0001692  74.1764 285.9411 15.06392794 26126","ARG_OF_PERICENTER":"74.1764","SEMIMAJOR_AXIS":"6925.371","NORAD_CAT_ID":"47812","ELEMENT_SET_NO":"999","ECCENTRICITY":"0.00016920","LAUNCH_DATE":"2021-03-11","SITE":"AFETR"},{"ELEMENT_SET_NO":"999","SEMIMAJOR_AXIS":"6925.340","NORAD_CAT_ID":"47813","SITE":"AFETR","LAUNCH_DATE":"2021-03-11","ECCENTRICITY":"0.00024870","ARG_OF_PERICENTER":"80.5757","TLE_LINE2":"2 47813  53.0562 127.3321 0002487  80.5757 279.5513 15.06402727 26608","DECAY_DATE":null,"CENTER_NAME":"EARTH","FILE":"3101032","MEAN_ELEMENT_THEORY":"SGP4","RCS_SIZE":"LARGE","REV_AT_EPOCH":"2660","MEAN_MOTION_DOT":"0.00000893","EPHEMERIS_TYPE":"0","OBJECT_TYPE":"PAYLOAD","EPOCH":"2021-08-21T20:47:29.447520","BSTAR":"0.00007888800000","REF_FRAME":"TEME","OBJECT_ID":"2021-018AC","PERIOD":"95.592","APOAPSIS":"548.928","GP_ID":"183213946","MEAN_MOTION_DDOT":"0.0000000000000","MEAN_ANOMALY":"279.5513","COUNTRY_CODE":"US","RA_OF_ASC_NODE":"127.3321","TLE_LINE1":"1 47813U 21018AC  21233.86631305  .00000893  00000-0  78888-4 0  9991","CLASSIFICATION_TYPE":"U","TIME_SYSTEM":"UTC","MEAN_MOTION":"15.06402727","OBJECT_NAME":"STARLINK-2394","INCLINATION":"53.0562","PERIAPSIS":"545.483"}];
